GLOBALSTAR M023         
1 25621U 99004A   25033.37692606 -.00000122  00000+0 -10067-3 0  9993
2 25621  52.0111 103.9417 0010216 187.4850 252.3871 12.62494058198700
GLOBALSTAR M038         
1 25624U 99004D   25033.66188903 -.00000049  00000+0  37863-3 0  9998
2 25624  51.9973  98.9879 0002482 133.2195  31.9644 12.32519793185783
GLOBALSTAR M022         
1 25649U 99012A   25033.18598406 -.00000086  00000+0  15241-4 0  9992
2 25649  52.0054 297.8993 0001693 271.7144 233.2181 12.02495145160130
GLOBALSTAR M041         
1 25650U 99012B   25033.73942758 -.00000062  00000+0  30355-3 0  9994
2 25650  51.9996 173.7442 0002730  73.3158 286.7978 11.96670906162186
GLOBALSTAR M046         
1 25651U 99012C   25033.97988359 -.00000158  00000+0 -76026-3 0  9990
2 25651  52.0028 250.7732 0002368  12.0011 135.2639 12.09405200167420
GLOBALSTAR M037         
1 25652U 99012D   25033.91901900 -.00000043  00000+0  33845-3 0  9996
2 25652  51.9975 232.9596 0000927 232.3074 277.9843 12.62435538194310
